OBJECT_NAME,OBJECT_ID,EPOCH,MEAN_MOTION,ECCENTRICITY,INCLINATION,RA_OF_ASC_NODE,ARG_OF_PERICENTER,MEAN_ANOMALY,EPHEMERIS_TYPE,CLASSIFICATION_TYPE,NORAD_CAT_ID,ELEMENT_SET_NO,REV_AT_EPOCH,BSTAR,MEAN_MOTION_DOT,MEAN_MOTION_DDOT
ONEWEB-0578,2023-043X,2026-06-11T12:01:33.523680,13.21824496,.00023644,87.9257,245.1036,99.6537,260.4864,0,U,56067,999,15748,.13869776E-3,.7E-6,0
ONEWEB-0579,2023-043Y,2026-06-11T11:49:28.357248,13.21826391,.0001751,87.9264,245.1021,99.4336,260.6996,0,U,56068,999,15749,.25020913E-3,.116E-5,0
ONEWEB-0581,2023-043Z,2026-06-11T14:27:33.567840,13.16593501,.00022004,87.9097,229.8930,83.1891,276.9491,0,U,56069,999,15822,-.930465E-3,-.343E-5,0
ONEWEB-0609,2023-043AA,2026-06-11T13:16:31.107648,13.15549115,.00019957,87.8998,260.3342,102.8487,257.2867,0,U,56070,999,15569,.30334319E-3,.127E-5,0
ONEWEB-0613,2023-043AB,2026-06-11T13:13:05.226816,13.15549995,.00017221,87.8998,260.3469,104.9754,255.1567,0,U,56071,999,15569,.5687448E-4,.34E-6,0
ONEWEB-0630,2023-043AC,2026-06-11T13:06:13.681152,13.15548244,.00017415,87.9003,260.3191,103.4634,256.6691,0,U,56072,999,15568,-.70147785E-3,-.251E-5,0
ONEWEB-0632,2023-043AD,2026-06-11T07:30:50.607936,13.15548820,.00019784,87.8999,260.3835,95.5093,264.6263,0,U,56073,999,15565,-.10606165E-3,-.27E-6,0
ONEWEB-0633,2023-043AE,2026-06-11T12:50:15.519840,13.15547458,.00017265,87.9009,260.3144,111.8429,248.2885,0,U,56074,999,15566,-.47586594E-3,-.166E-5,0
ONEWEB-0634,2023-043AF,2026-06-11T12:29:44.928960,13.15548527,.0002258,87.9003,260.3579,105.7273,254.4107,0,U,56075,999,15565,-.15947358E-3,-.47E-6,0
ONEWEB-0635,2023-043AG,2026-06-11T12:22:53.140512,13.15550698,.00019981,87.9009,260.3208,92.5533,267.5826,0,U,56076,999,15568,-.50728004E-4,-.6E-7,0
ONEWEB-0636,2023-043AH,2026-06-11T12:11:29.855616,13.15549392,.00020034,87.9006,260.3291,94.4508,265.6851,0,U,56077,999,15566,.69420687E-4,.39E-6,0
ONEWEB-0637,2023-043AJ,2026-06-11T12:02:22.521984,13.15548623,.00022675,87.9002,260.3472,98.0157,262.1231,0,U,56078,999,15568,.39656839E-3,.162E-5,0
ONEWEB-0647,2023-043AK,2026-06-11T13:45:03.420864,13.15548518,.00018298,87.9000,260.3454,97.0107,263.1232,0,U,56079,999,15568,.23745536E-3,.102E-5,0
ONEWEB-0651,2023-043AL,2026-06-11T13:38:12.410880,13.15548895,.00021217,87.8999,260.3401,95.1743,264.9629,0,U,56080,999,15688,.77328966E-3,.304E-5,0
ONEWEB-0718,2023-043AM,2026-06-11T13:31:19.815456,13.15550946,.00022795,87.8998,260.3216,112.2003,247.9369,0,U,56081,999,15569,.35013814E-3,.145E-5,0
ONEWEB-0561,2023-068A,2026-06-11T14:12:01.236672,13.20771179,.00018045,87.9193,275.5583,89.3687,270.7653,0,U,56710,999,14876,.19184965E-3,.91E-6,0
ONEWEB-0668,2023-068B,2026-06-11T13:51:06.276672,13.16594029,.00025601,87.9101,229.8863,102.3858,257.7559,0,U,56711,999,15104,-.58885213E-4,-.1E-6,0
ONEWEB-0676,2023-068C,2026-06-11T14:02:28.936896,13.16592935,.00020898,87.9101,229.8905,88.5988,271.5382,0,U,56712,999,15096,-.15810226E-3,-.48E-6,0
ONEWEB-0677,2023-068D,2026-06-11T06:38:39.758784,13.20770047,.00023155,87.9191,275.6126,94.5966,265.5431,0,U,56713,999,14902,.15941055E-3,.78E-6,0
ONEWEB-0678,2023-068E,2026-06-11T12:45:42.937344,13.15548229,.00016862,87.9010,260.3194,99.7690,260.3631,0,U,56714,999,14854,-.22168027E-3,-.71E-6,0
ONEWEB-0679,2023-068F,2026-06-11T14:52:39.521568,13.16593969,.00026102,87.9097,229.8754,93.8319,266.3110,0,U,56715,999,15099,.12929679E-3,.62E-6,0
ONEWEB-0680,2023-068G,2026-06-11T11:51:52.381728,13.21827952,.00026356,87.9263,245.1031,101.1470,258.9961,0,U,56716,999,15034,.16572814E-3,.81E-6,0
ONEWEB-0681,2023-068H,2026-06-11T11:24:00.985824,13.21826761,.00022124,87.9258,245.1084,73.6102,286.5275,0,U,56717,999,15033,.12946206E-3,.66E-6,0
ONEWEB-0682,2023-068J,2026-06-11T13:19:57.309024,13.15548709,.00025111,87.9006,260.3155,102.1101,258.0311,0,U,56718,999,14871,.33621119E-3,.139E-5,0
ONEWEB-0683,2023-068K,2026-06-11T12:04:39.525600,13.15548771,.00022197,87.9012,260.3254,104.7095,255.4282,0,U,56719,999,14867,.37154432E-3,.153E-5,0
ONEWEB-0684,2023-068L,2026-06-11T12:16:03.509472,13.15548247,.00011583,87.9009,260.3139,142.2642,217.8570,0,U,56720,999,14850,.13002422E-3,.62E-6,0
ONEWEB-0686,2023-068M,2026-06-11T13:55:40.046304,13.16594526,.00021425,87.9092,229.9069,107.4293,252.7073,0,U,56721,999,15097,-.81367754E-4,-.18E-6,0
ONEWEB-0694,2023-068N,2026-06-11T14:04:46.943616,13.16594736,.00025146,87.9112,229.8690,101.4166,258.7248,0,U,56722,999,15103,-.21482929E-3,-.69E-6,0
ONEWEB-0696,2023-068P,2026-06-11T13:03:56.677536,13.15546587,.00014969,87.8999,260.3461,98.4120,261.7180,0,U,56723,999,14862,.18164121E-4,.2E-6,0
ONEWEB-0703,2023-068Q,2026-06-11T13:17:40.098048,13.15548427,.00012789,87.8999,260.3254,81.1725,278.9550,0,U,56724,999,14851,.27651969E-3,.117E-5,0
