ONEWEB-0578             
1 56067U 23043X   26162.50108245  .00000070  00000+0  13870-3 0  9996
2 56067  87.9257 245.1036 0002364  99.6537 260.4864 13.21824496157484
ONEWEB-0579             
1 56068U 23043Y   26162.49268932  .00000116  00000+0  25021-3 0  9997
2 56068  87.9264 245.1021 0001751  99.4336 260.6996 13.21826391157496
ONEWEB-0581             
1 56069U 23043Z   26162.60247185 -.00000343  00000+0 -93046-3 0  9994
2 56069  87.9097 229.8930 0002200  83.1891 276.9491 13.16593501158225
ONEWEB-0609             
1 56070U 23043AA  26162.55313782  .00000127  00000+0  30334-3 0  9996
2 56070  87.8998 260.3342 0001995 102.8487 257.2867 13.15549115155691
ONEWEB-0613             
1 56071U 23043AB  26162.55075494  .00000034  00000+0  56874-4 0  9997
2 56071  87.8998 260.3469 0001722 104.9754 255.1567 13.15549995155690
ONEWEB-0630             
1 56072U 23043AC  26162.54599168 -.00000251  00000+0 -70148-3 0  9998
2 56072  87.9003 260.3191 0001741 103.4634 256.6691 13.15548244155682
ONEWEB-0632             
1 56073U 23043AD  26162.31308574 -.00000027  00000+0 -10606-3 0  9997
2 56073  87.8999 260.3835 0001978  95.5093 264.6263 13.15548820155654
ONEWEB-0633             
1 56074U 23043AE  26162.53490185 -.00000166  00000+0 -47587-3 0  9994
2 56074  87.9009 260.3144 0001726 111.8429 248.2885 13.15547458155662
ONEWEB-0634             
1 56075U 23043AF  26162.52065890 -.00000047  00000+0 -15947-3 0  9998
2 56075  87.9003 260.3579 0002258 105.7273 254.4107 13.15548527155652
ONEWEB-0635             
1 56076U 23043AG  26162.51589283 -.00000006  00000+0 -50728-4 0  9997
2 56076  87.9009 260.3208 0001998  92.5533 267.5826 13.15550698155688
ONEWEB-0636             
1 56077U 23043AH  26162.50798444  .00000039  00000+0  69421-4 0  9992
2 56077  87.9006 260.3291 0002003  94.4508 265.6851 13.15549392155663
ONEWEB-0637             
1 56078U 23043AJ  26162.50164956  .00000162  00000+0  39657-3 0  9992
2 56078  87.9002 260.3472 0002267  98.0157 262.1231 13.15548623155685
ONEWEB-0647             
1 56079U 23043AK  26162.57295626  .00000102  00000+0  23746-3 0  9995
2 56079  87.9000 260.3454 0001829  97.0107 263.1232 13.15548518155686
ONEWEB-0651             
1 56080U 23043AL  26162.56819920  .00000304  00000+0  77329-3 0  9995
2 56080  87.8999 260.3401 0002121  95.1743 264.9629 13.15548895156887
ONEWEB-0718             
1 56081U 23043AM  26162.56342379  .00000145  00000+0  35014-3 0  9993
2 56081  87.8998 260.3216 0002279 112.2003 247.9369 13.15550946155695
ONEWEB-0561             
1 56710U 23068A   26162.59168098  .00000091  00000+0  19185-3 0  9997
2 56710  87.9193 275.5583 0001804  89.3687 270.7653 13.20771179148761
ONEWEB-0668             
1 56711U 23068B   26162.57715598 -.00000010  00000+0 -58885-4 0  9993
2 56711  87.9101 229.8863 0002560 102.3858 257.7559 13.16594029151047
ONEWEB-0676             
1 56712U 23068C   26162.58505714 -.00000048  00000+0 -15810-3 0  9993
2 56712  87.9101 229.8905 0002089  88.5988 271.5382 13.16592935150962
ONEWEB-0677             
1 56713U 23068D   26162.27684906  .00000078  00000+0  15941-3 0  9997
2 56713  87.9191 275.6126 0002315  94.5966 265.5431 13.20770047149021
ONEWEB-0678             
1 56714U 23068E   26162.53174696 -.00000071  00000+0 -22168-3 0  9991
2 56714  87.9010 260.3194 0001686  99.7690 260.3631 13.15548229148549
ONEWEB-0679             
1 56715U 23068F   26162.61990187  .00000062  00000+0  12930-3 0  9996
2 56715  87.9097 229.8754 0002610  93.8319 266.3110 13.16593969150990
ONEWEB-0680             
1 56716U 23068G   26162.49435627  .00000081  00000+0  16573-3 0  9994
2 56716  87.9263 245.1031 0002635 101.1470 258.9961 13.21827952150341
ONEWEB-0681             
1 56717U 23068H   26162.47501141  .00000066  00000+0  12946-3 0  9991
2 56717  87.9258 245.1084 0002212  73.6102 286.5275 13.21826761150331
ONEWEB-0682             
1 56718U 23068J   26162.55552441  .00000139  00000+0  33621-3 0  9994
2 56718  87.9006 260.3155 0002511 102.1101 258.0311 13.15548709148710
ONEWEB-0683             
1 56719U 23068K   26162.50323525  .00000153  00000+0  37154-3 0  9990
2 56719  87.9012 260.3254 0002219 104.7095 255.4282 13.15548771148675
ONEWEB-0684             
1 56720U 23068L   26162.51115173  .00000062  00000+0  13002-3 0  9996
2 56720  87.9009 260.3139 0001158 142.2642 217.8570 13.15548247148503
ONEWEB-0686             
1 56721U 23068M   26162.58032461 -.00000018  00000+0 -81368-4 0  9996
2 56721  87.9092 229.9069 0002142 107.4293 252.7073 13.16594526150970
ONEWEB-0694             
1 56722U 23068N   26162.58665444 -.00000069  00000+0 -21483-3 0  9997
2 56722  87.9112 229.8690 0002514 101.4166 258.7248 13.16594736151030
ONEWEB-0696             
1 56723U 23068P   26162.54440599  .00000020  00000+0  18164-4 0  9994
2 56723  87.8999 260.3461 0001496  98.4120 261.7180 13.15546587148622
ONEWEB-0703             
1 56724U 23068Q   26162.55393632  .00000117  00000+0  27652-3 0  9999
2 56724  87.8999 260.3254 0001278  81.1725 278.9550 13.15548427148515
